{
    "links": {
        "self": "http://www.neowsapp.com/rest/v1/neo/3805273?api_key=iIulBulltgU6a56xZRHN4H3l9WmuAYTsLGpBGhQ2"
    },
    "id": "3805273",
    "neo_reference_id": "3805273",
    "name": "(2018 HB1)",
    "designation": "2018 HB1",
    "nasa_jpl_url": "http://ssd.jpl.nasa.gov/sbdb.cgi?sstr=3805273",
    "absolute_magnitude_h": 24.9,
    "estimated_diameter": {
        "kilometers": {
            "estimated_diameter_min": 0.0278326768,
            "estimated_diameter_max": 0.0622357573
        },
        "meters": {
            "estimated_diameter_min": 27.8326768072,
            "estimated_diameter_max": 62.2357573367
        },
        "miles": {
            "estimated_diameter_min": 0.0172944182,
            "estimated_diameter_max": 0.0386714948
        },
        "feet": {
            "estimated_diameter_min": 91.3145593761,
            "estimated_diameter_max": 204.1855621004
        }
    },
    "is_potentially_hazardous_asteroid": false,
    "close_approach_data": [
        {
            "close_approach_date": "2016-08-24",
            "close_approach_date_full": "2016-Aug-24 02:56",
            "epoch_date_close_approach": 1472007360000,
            "relative_velocity": {
                "kilometers_per_second": "20.0356107291",
                "kilometers_per_hour": "72128.1986246509",
                "miles_per_hour": "44817.657639856"
            },
            "miss_distance": {
                "astronomical": "0.4540125517",
                "lunar": "176.6108826113",
                "kilometers": "67919310.687584879",
                "miles": "42203102.6773901702"
            },
            "orbiting_body": "Earth"
        },
        {
            "close_approach_date": "2018-05-02",
            "close_approach_date_full": "2018-May-02 18:16",
            "epoch_date_close_approach": 1525284960000,
            "relative_velocity": {
                "kilometers_per_second": "9.1541056695",
                "kilometers_per_hour": "32954.7804101614",
                "miles_per_hour": "20476.8189720805"
            },
            "miss_distance": {
                "astronomical": "0.0259308264",
                "lunar": "10.0870914696",
                "kilometers": "3879196.396779768",
                "miles": "2410420.8682580784"
            },
            "orbiting_body": "Earth"
        }
    ],
    "orbital_data": {
        "orbit_id": "4",
        "orbit_determination_date": "2018-04-27 06:51:58",
        "first_observation_date": "2018-04-20",
        "last_observation_date": "2018-04-27",
        "data_arc_in_days": 7,
        "observations_used": 46,
        "orbit_uncertainty": "8",
        "minimum_orbit_intersection": ".0114393",
        "jupiter_tisserand_invariant": "4.405",
        "epoch_osculation": "2458231.5",
        "eccentricity": ".3689514261452865",
        "semi_major_axis": "1.52663512626171",
        "inclination": "8.076494726112548",
        "ascending_node_longitude": "41.61108421934281",
        "orbital_period": "688.9715727309899",
        "perihelion_distance": ".9633809192239627",
        "perihelion_argument": "219.6217999875932",
        "aphelion_distance": "2.089889333299458",
        "perihelion_time": "2458273.649640687188",
        "mean_anomaly": "337.9760569986356",
        "mean_motion": ".5225179299822325",
        "equinox": "J2000",
        "orbit_class": {
            "orbit_class_type": "APO",
            "orbit_class_description": "Near-Earth asteroid orbits which cross the Earth’s orbit similar to that of 1862 Apollo",
            "orbit_class_range": "a (semi-major axis) > 1.0 AU; q (perihelion) < 1.017 AU"
        }
    },
    "is_sentry_object": false
}